DMSP 5D-3 F16 (USA 172) 
1 28054U 03048A   26165.55797456  .00000015  00000+0  31701-4 0  9993
2 28054  98.9891 189.3689 0007638 147.0695 328.1162 14.14482971169117
METEOSAT-9 (MSG-2)      
1 28912U 05049B   26164.84223331  .00000126  00000+0  00000+0 0  9992
2 28912   9.3538  54.2002 0001543 346.3460 210.4526  1.00270562  6968
DMSP 5D-3 F17 (USA 191) 
1 29522U 06050A   26165.55337787  .00000036  00000+0  40966-4 0  9993
2 29522  98.7378 172.1773 0011226  66.2702 293.9649 14.14992803 12058
FENGYUN 3A              
1 32958U 08026A   26165.43943713  .00000051  00000+0  44700-4 0  9991
2 32958  98.6883 106.3239 0009488 130.8166 229.3835 14.19570572935010
GOES 14                 
1 35491U 09033A   26165.57454329 -.00000275  00000+0  00000+0 0  9999
2 35491   1.6833  83.0738 0001714  10.4705 159.5000  1.00111605  6566
DMSP 5D-3 F18 (USA 210) 
1 35951U 09057A   26165.59529807  .00000197  00000+0  12518-3 0  9995
2 35951  98.9037 146.3700 0009858 257.7576 102.2493 14.14895388859229
EWS-G2 (GOES 15)        
1 36411U 10008A   26165.61595177  .00000024  00000+0  00000+0 0  9999
2 36411   1.2705  82.9007 0005403  42.4039  63.0398  1.00275716 59611
COMS 1                  
1 36744U 10032A   26165.63401258  .00000018  00000+0  00000+0 0  9996
2 36744   4.7983  75.3838 0011438  11.7091 127.7230  0.99162618 51063
FENGYUN 3B              
1 37214U 10059A   26165.62463580  .00000634  00000+0  35094-3 0  9992
2 37214  98.9625 211.6282 0021753 191.4502 271.2553 14.14843278807068
SUOMI NPP               
1 37849U 11061A   26165.59158649  .00000045  00000+0  42349-4 0  9991
2 37849  98.7954 106.4854 0001678  13.1989 346.9230 14.19516821758078
METEOSAT-10 (MSG-3)     
1 38552U 12035B   26165.33231080  .00000000  00000+0  00000+0 0  9992
2 38552   4.6648  61.0321 0001424 327.8422 353.7007  1.00276282 50823
METOP-B                 
1 38771U 12049A   26165.58514557  .00000093  00000+0  62260-4 0  9993
2 38771  98.6505 217.1362 0002392  26.0835 334.0463 14.21432037712890
INSAT-3D                
1 39216U 13038B   26165.57176994 -.00000333  00000+0  00000+0 0  9992
2 39216   1.9193  82.5725 0000552 308.3925 207.2638  1.00270338 47055
FENGYUN 3C              
1 39260U 13052A   26165.64091539  .00000041  00000+0  41699-4 0  9995
2 39260  98.4986 139.6326 0015371  34.6702 325.5472 14.15754480658203
METEOR-M 2              
1 40069U 14037A   26165.61156123  .00000103  00000+0  66546-4 0  9993
2 40069  98.5105 141.4407 0006846  50.5456 309.6327 14.21461183618959
HIMAWARI-8              
1 40267U 14060A   26165.66175109 -.00000269  00000+0  00000+0 0  9991
2 40267   0.0101 325.4507 0000972 120.8206 195.5781  1.00272437 42734
FENGYUN 2G              
1 40367U 14090A   26165.63713259 -.00000300  00000+0  00000+0 0  9992
2 40367   5.6310  72.8471 0004016 154.3192   4.8077  1.00273302 41977
METEOSAT-11 (MSG-4)     
1 40732U 15034A   26165.61934456  .00000069  00000+0  00000+0 0  9990
2 40732   3.1952  71.1255 0001756   9.6386  54.7067  1.00279558  7193
ELEKTRO-L 2             
1 41105U 15074A   26165.04412756 -.00000114  00000+0  00000+0 0  9992
2 41105   6.6845  70.5612 0000704 243.9352 309.2359  1.00270718 38471
SENTINEL-3A             
1 41335U 16011A   26165.62175363  .00000100  00000+0  59202-4 0  9990
2 41335  98.6249 233.0421 0001391 102.4707 257.6629 14.26739329537699
INSAT-3DR               
1 41752U 16054A   26165.55453084 -.00000070  00000+0  00000+0 0  9995
2 41752   0.0995  86.7188 0010640 187.1951 262.5461  1.00270797 35798
HIMAWARI-9              
1 41836U 16064A   26165.66175111 -.00000268  00000+0  00000+0 0  9992
2 41836   0.0507 146.7815 0000810 353.0152 142.1617  1.00269877 35185
GOES 16                 
1 41866U 16071A   26165.59672446 -.00000084  00000+0  00000+0 0  9994
2 41866   0.3343  85.5165 0000209 299.5190 347.9900  1.00270919 35072
FENGYUN 4A              
1 41882U 16077A   26165.65566255 -.00000352  00000+0  00000+0 0  9993
2 41882   2.3150  80.3122 0008683 153.0661  29.3897  1.00269879 34905
CYGFM05                 
1 41884U 16078A   26165.61413981  .00021903  00000+0  29787-3 0  9990
2 41884  34.9573 277.6267 0006782 124.5691 235.5674 15.56573554528357
CYGFM04                 
1 41885U 16078B   26165.52878884  .00027490  00000+0  31097-3 0  9992
2 41885  34.9322 246.0164 0006349 170.2823 189.8026 15.61385633528582
CYGFM02                 
1 41886U 16078C   26165.59836275  .00032075  00000+0  32247-3 0  9991
2 41886  34.9402 240.1637 0007349 172.2820 187.8021 15.64358647528763
CYGFM01                 
1 41887U 16078D   26165.60397567  .00022000  00000+0  29176-3 0  9994
2 41887  34.9404 278.7728 0006588 117.9487 242.1905 15.57246077528304
CYGFM08                 
1 41888U 16078E   26165.56787786  .00025597  00000+0  30658-3 0  9997
2 41888  34.9432 258.6598 0008008 151.8540 208.2619 15.59899869528562
CYGFM07                 
1 41890U 16078G   26165.52718096  .00025614  00000+0  30575-3 0  9992
2 41890  34.9444 247.2756 0006742 168.9075 191.1800 15.59999235528585
CYGFM03                 
1 41891U 16078H   26165.56216842  .00025223  00000+0  30123-3 0  9994
2 41891  34.9400 248.9806 0006137 156.9198 203.1804 15.59993141528569
