OBJECT_NAME,OBJECT_ID,EPOCH,MEAN_MOTION,ECCENTRICITY,INCLINATION,RA_OF_ASC_NODE,ARG_OF_PERICENTER,MEAN_ANOMALY,EPHEMERIS_TYPE,CLASSIFICATION_TYPE,NORAD_CAT_ID,ELEMENT_SET_NO,REV_AT_EPOCH,BSTAR,MEAN_MOTION_DOT,MEAN_MOTION_DDOT
DMSP 5D-3 F16 (USA 172),2003-048A,2026-06-14T13:23:29.001984,14.14482971,.00076382,98.9891,189.3689,147.0695,328.1162,0,U,28054,999,16911,.3170063E-4,.15E-6,0
METEOSAT-9 (MSG-2),2005-049B,2026-06-13T20:12:48.957984,1.00270562,.00015434,9.3538,54.2002,346.3460,210.4526,0,U,28912,999,696,0,.126E-5,0
DMSP 5D-3 F17 (USA 191),2006-050A,2026-06-14T13:16:51.847968,14.14992803,.00112268,98.7378,172.1773,66.2702,293.9649,0,U,29522,999,1205,.40965724E-4,.36E-6,0
FENGYUN 3A,2008-026A,2026-06-14T10:32:47.368032,14.19570572,.00094888,98.6883,106.3239,130.8166,229.3835,0,U,32958,999,93501,.446997E-4,.51E-6,0
GOES 14,2009-033A,2026-06-14T13:47:20.540256,1.00111605,.00017144,1.6833,83.0738,10.4705,159.5000,0,U,35491,999,656,0,-.275E-5,0
DMSP 5D-3 F18 (USA 210),2009-057A,2026-06-14T14:17:13.753248,14.14895388,.00098589,98.9037,146.3700,257.7576,102.2493,0,U,35951,999,85922,.12517924E-3,.197E-5,0
EWS-G2 (GOES 15),2010-008A,2026-06-14T14:46:58.232928,1.00275716,.00054039,1.2705,82.9007,42.4039,63.0398,0,U,36411,999,5961,0,.24E-6,0
COMS 1,2010-032A,2026-06-14T15:12:58.686912,0.99162618,.00114387,4.7983,75.3838,11.7091,127.7230,0,U,36744,999,5106,0,.18E-6,0
FENGYUN 3B,2010-059A,2026-06-14T14:59:28.533120,14.14843278,.00217532,98.9625,211.6282,191.4502,271.2553,0,U,37214,999,80706,.35094187E-3,.634E-5,0
SUOMI NPP,2011-061A,2026-06-14T14:11:53.072736,14.19516821,.00016787,98.7954,106.4854,13.1989,346.9230,0,U,37849,999,75807,.42348562E-4,.45E-6,0
METEOSAT-10 (MSG-3),2012-035B,2026-06-14T07:58:31.653120,1.00276282,.00014244,4.6648,61.0321,327.8422,353.7007,0,U,38552,999,5082,0,0,0
METOP-B,2012-049A,2026-06-14T14:02:36.577248,14.21432037,.00023926,98.6505,217.1362,26.0835,334.0463,0,U,38771,999,71289,.62259501E-4,.93E-6,0
INSAT-3D,2013-038B,2026-06-14T13:43:20.922816,1.00270338,.00005529,1.9193,82.5725,308.3925,207.2638,0,U,39216,999,4705,0,-.333E-5,0
FENGYUN 3C,2013-052A,2026-06-14T15:22:55.089696,14.15754480,.00153715,98.4986,139.6326,34.6702,325.5472,0,U,39260,999,65820,.41698743E-4,.41E-6,0
METEOR-M 2,2014-037A,2026-06-14T14:40:38.890272,14.21461183,.00068466,98.5105,141.4407,50.5456,309.6327,0,U,40069,999,61895,.66545664E-4,.103E-5,0
HIMAWARI-8,2014-060A,2026-06-14T15:52:55.294176,1.00272437,.00009723,0.0101,325.4507,120.8206,195.5781,0,U,40267,999,4273,0,-.269E-5,0
FENGYUN 2G,2014-090A,2026-06-14T15:17:28.255776,1.00273302,.00040163,5.6310,72.8471,154.3192,4.8077,0,U,40367,999,4197,0,-.3E-5,0
METEOSAT-11 (MSG-4),2015-034A,2026-06-14T14:51:51.369984,1.00279558,.00017566,3.1952,71.1255,9.6386,54.7067,0,U,40732,999,719,0,.69E-6,0
ELEKTRO-L 2,2015-074A,2026-06-14T01:03:32.621184,1.00270718,.00007046,6.6845,70.5612,243.9352,309.2359,0,U,41105,999,3847,0,-.114E-5,0
SENTINEL-3A,2016-011A,2026-06-14T14:55:19.513632,14.26739329,.00013919,98.6249,233.0421,102.4707,257.6629,0,U,41335,999,53769,.59201898E-4,.1E-5,0
INSAT-3DR,2016-054A,2026-06-14T13:18:31.464576,1.00270797,.00106401,0.0995,86.7188,187.1951,262.5461,0,U,41752,999,3579,0,-.7E-6,0
HIMAWARI-9,2016-064A,2026-06-14T15:52:55.295904,1.00269877,.00008103,0.0507,146.7815,353.0152,142.1617,0,U,41836,999,3518,0,-.268E-5,0
GOES 16,2016-071A,2026-06-14T14:19:16.993344,1.00270919,.00002091,0.3343,85.5165,299.5190,347.9900,0,U,41866,999,3507,0,-.84E-6,0
FENGYUN 4A,2016-077A,2026-06-14T15:44:09.244320,1.00269879,.00086834,2.3150,80.3122,153.0661,29.3897,0,U,41882,999,3490,0,-.352E-5,0
CYGFM05,2016-078A,2026-06-14T14:44:21.679584,15.56573554,.00067829,34.9573,277.6267,124.5691,235.5674,0,U,41884,999,52835,.29787396E-3,.21903E-3,0
CYGFM04,2016-078B,2026-06-14T12:41:27.355776,15.61385633,.00063491,34.9322,246.0164,170.2823,189.8026,0,U,41885,999,52858,.31097181E-3,.2749E-3,0
CYGFM02,2016-078C,2026-06-14T14:21:38.541600,15.64358647,.00073491,34.9402,240.1637,172.2820,187.8021,0,U,41886,999,52876,.32247359E-3,.32075E-3,0
CYGFM01,2016-078D,2026-06-14T14:29:43.497888,15.57246077,.00065887,34.9404,278.7728,117.9487,242.1905,0,U,41887,999,52830,.2917574E-3,.22E-3,0
CYGFM08,2016-078E,2026-06-14T13:37:44.647104,15.59899869,.00080086,34.9432,258.6598,151.8540,208.2619,0,U,41888,999,52856,.3065753E-3,.25597E-3,0
CYGFM07,2016-078G,2026-06-14T12:39:08.434944,15.59999235,.00067426,34.9444,247.2756,168.9075,191.1800,0,U,41890,999,52858,.30574917E-3,.25614E-3,0
CYGFM03,2016-078H,2026-06-14T13:29:31.351488,15.59993141,.00061377,34.9400,248.9806,156.9198,203.1804,0,U,41891,999,52856,.30123203E-3,.25223E-3,0
